[{"OBJECT_NAME":"LMRST-SAT","OBJECT_ID":"2015-058H","EPOCH":"2026-03-09T17:22:48.893664","MEAN_MOTION":14.89988841,"ECCENTRICITY":0.01310128,"INCLINATION":64.7755,"RA_OF_ASC_NODE":224.0879,"ARG_OF_PERICENTER":97.8444,"MEAN_ANOMALY":263.7563,"EPHEMERIS_TYPE":0,"CLASSIFICATION_TYPE":"U","NORAD_CAT_ID":40971,"ELEMENT_SET_NO":999,"REV_AT_EPOCH":9873,"BSTAR":0.00042420191,"MEAN_MOTION_DOT":4.653e-5,"MEAN_MOTION_DDOT":0},{"OBJECT_NAME":"CZ-6A DEB","OBJECT_ID":"2024-140AEP","EPOCH":"2026-03-09T13:12:11.480832","MEAN_MOTION":14.51805606,"ECCENTRICITY":0.00550706,"INCLINATION":88.9164,"RA_OF_ASC_NODE":277.2954,"ARG_OF_PERICENTER":279.7947,"MEAN_ANOMALY":79.7045,"EPHEMERIS_TYPE":0,"CLASSIFICATION_TYPE":"U","NORAD_CAT_ID":64649,"ELEMENT_SET_NO":999,"REV_AT_EPOCH":7481,"BSTAR":0.0013020754,"MEAN_MOTION_DOT":5.356e-5,"MEAN_MOTION_DDOT":0}]
